HST                     
1 20580U 90037B   22058.53835368  .00001663  00000+0  88677-4 0  9997
2 20580  28.4692 176.8351 0002317 295.2071 154.1042 15.10074403549581
POLAR                   
1 23802U 96013A   22057.12337071  .00000300  00000+0  00000+0 0  9995
2 23802  78.7427 242.7338 5860212 262.6639  31.1535  1.29846829124441
SWAS                    
1 25560U 98071A   22058.28148148  .00000634  00000+0  67245-4 0  9996
2 25560  69.8971 263.6852 0005891 147.5911 212.5608 14.94394073261561
CXO                     
1 25867U 99040B   22059.62860380  .00000752  00000+0  00000+0 0  9993
2 25867  48.3460 242.3908 8685678 230.3773   0.5805  0.37811474 11393
XMM-NEWTON              
1 25989U 99066A   22058.80166635  .00000181  00000+0  00000+0 0  9993
2 25989  70.3510 306.7959 6196460  87.9330   0.1149  0.50137905 15137
TERRA                   
1 25994U 99068A   22058.54607683  .00000174  00000+0  48546-4 0  9999
2 25994  98.1481 132.9362 0001272  97.4311  10.9845 14.57134554180493
CLUSTER II-FM7 (SAMBA)  
1 26410U 00041A   22060.31160676 -.00000259  00000+0  00000+0 0  9993
2 26410 133.7103 346.7284 5413441 197.3295 359.6098  0.44170825 25092
CLUSTER II-FM6 (SALSA)  
1 26411U 00041B   22060.29764116 -.00000358  00000+0  00000+0 0  9990
2 26411 135.4133 349.5813 7022794 201.8871 359.7173  0.44213521 13378
CLUSTER II-FM5 (RUMBA)  
1 26463U 00045A   22060.30125446 -.00000249  00000+0  00000+0 0  9999
2 26463 139.0029 349.8109 6548428 202.5681 359.6718  0.44214281 13269
CLUSTER II-FM8 (TANGO)  
1 26464U 00045B   22060.30512327 -.00000258  00000+0  00000+0 0  9998
2 26464 133.7135 346.7193 5409754 197.3417 359.6540  0.44219309 13341
ODIN                    
1 26702U 01007A   22058.55045374  .00001704  00000+0  11127-3 0  9991
2 26702  97.5281  75.3254 0009219 312.8256  47.2198 15.09132280149696
TIMED                   
1 26998U 01055B   22058.56130457  .00000517  00000+0  59730-4 0  9993
2 26998  74.0727 138.5426 0001162 317.2317  42.8773 14.88479586 96653
RHESSI                  
1 27370U 02004A   22058.45422628  .00012076  00000+0  30957-3 0  9997
2 27370  38.0335 326.2885 0010218 359.6912   0.3854 15.38816648109633
INTEGRAL                
1 27540U 02048A   22056.23936809 -.00000185  00000+0  00000+0 0  9990
2 27540  71.9961  66.5984 8946467 299.5656  81.9704  0.37574891 20721
CORIOLIS                
1 27640U 03001A   22058.54600948  .00000059  00000+0  48814-4 0  9998
2 27640  98.7210  69.2794 0015054  56.3235  52.4998 14.19105363991384
SORCE                   
1 27651U 03004A   22058.52523952  .00000766  00000+0  92733-4 0  9994
2 27651  39.9952 111.1364 0022289  58.8037 301.4934 14.89588134 36678
MOST                    
1 27843U 03031D   22058.55559032  .00000040  00000+0  38854-4 0  9997
2 27843  98.7102  67.7630 0011084 103.8809 256.3602 14.20663341967641
SCISAT 1                
1 27858U 03036A   22058.34686082  .00000247  00000+0  39704-4 0  9995
2 27858  73.9331  41.4633 0006461 109.6132 250.5741 14.77445547999164
SWIFT                   
1 28485U 04047A   22058.53012601  .00002916  00000+0  16572-3 0  9998
2 28485  20.5583   1.6041 0010665 346.4690  13.5458 15.05639060946958
CLOUDSAT                
1 29107U 06016A   22058.48690994  .00000156  00000+0  40154-4 0  9997
2 29107  98.3149  17.7098 0001872 302.6202  57.4818 14.62794189842952
CALIPSO                 
1 29108U 06016B   22058.48125750  .00000458  00000+0  99452-4 0  9991
2 29108  98.3117  17.3213 0001369  79.7507 280.3849 14.62732573842943
HINODE (SOLAR-B)        
1 29479U 06041A   22058.52858157  .00000257  00000+0  57350-4 0  9997
2 29479  98.1280  75.0582 0017953 208.6625 151.3592 14.64697039824663
SJ-6C                   
1 29505U 06046A   22058.31870239  .00000719  00000+0  69996-4 0  9996
2 29505  97.7876  80.0485 0005561 118.7163 241.4640 14.95572763836238
SJ-6D                   
1 29506U 06046B   22058.49719643  .00000538  00000+0  56189-4 0  9996
2 29506  97.8080  80.4283 0001399 174.9181 185.2028 14.93768123835729
AGILE                   
1 31135U 07013A   22057.43631386  .00006951  00000+0  16049-3 0  9997
2 31135   2.4688  25.9515 0010549 150.0124 210.0534 15.35546836459843
AIM                     
1 31304U 07015A   22058.48662769  .00004993  00000+0  26468-3 0  9992
2 31304  97.8587 333.7427 0006308  47.2790 312.8972 15.15853811814522
FGRST (GLAST)           
1 33053U 08029A   22058.41836632  .00001147  00000+0  48392-4 0  9995
2 33053  25.5816 197.2886 0012075 347.2030  12.8197 15.11832401757023
WISE                    
1 36119U 09071A   22058.52758419  .00004054  00000+0  13313-3 0  9991
2 36119  97.2557  95.1713 0002263  21.0977 339.0358 15.32133157678667
SDO                     
1 36395U 10005A   22057.63424476 -.00000094  00000+0  00000+0 0  9996
2 36395  31.4393 111.0202 0002056 237.7735 293.8330  1.00275272 44300
CRYOSAT 2               
1 36508U 10013A   22058.53370227  .00000211  00000+0  51583-4 0  9992
2 36508  92.0228 257.4509 0003292 255.9324 104.1517 14.51901528630188
X-SAT                   
1 37389U 11015C   22058.50547549  .00000007  00000+0  20934-4 0  9992
2 37389  98.3507  97.2760 0012898 275.3715  84.6006 14.24404328564554
GCOM-W1 (SHIZUKU)       
1 38337U 12025A   22058.58195200  .00000222  00000+0  59243-4 0  9993
2 38337  98.1927   0.7993 0001123 113.9058  59.0681 14.57111693520312
NUSTAR                  
1 38358U 12031A   22057.47624410  .00001851  00000+0  11820-3 0  9997
2 38358   6.0273  90.9276 0011482 178.8527 181.1629 14.88895644528284
NEOSSAT                 
1 39089U 13009D   22058.54220586  .00000109  00000+0  53816-4 0  9997
2 39089  98.4279 257.5531 0010282 242.1323 117.8821 14.34620504471456
BRITE-AUSTRIA           
1 39091U 13009F   22058.55353816  .00000077  00000+0  41953-4 0  9997
2 39091  98.4120 258.6631 0009438 242.8576 117.1647 14.35232277471664
IRIS                    
1 39197U 13033A   22058.52058484  .00000505  00000+0  75077-4 0  9991
2 39197  97.9679 245.3501 0028065  27.1207 333.1463 14.79046896467721
HISAKI (SPRINT-A)       
1 39253U 13049A   22058.32622972  .00000170  00000+0  13847-3 0  9992
2 39253  29.7202 284.3918 0137452 244.7136 113.9137 13.55262623418159
CASSIOPE                
1 39265U 13055A   22058.51745941  .00010458  00000+0  28810-3 0  9991
2 39265  80.9680  23.6719 0632749 283.4489  69.6966 14.35921736436540
STSAT-3                 
1 39422U 13066G   22058.30894233  .00000870  00000+0  94899-4 0  9992
2 39422  97.4728  69.4043 0021242 290.0888  69.8065 14.90175980449433
SWARM B                 
1 39451U 13067A   22058.46848573  .00001370  00000+0  57673-4 0  9993
2 39451  87.7455  94.2729 0003307  69.3123 290.8478 15.22480998444211
SWARM A                 
1 39452U 13067B   22058.53886995  .00005261  00000+0  10258-3 0  9992
2 39452  87.3552 264.6204 0003482  92.4608 267.7050 15.47239809464958
SWARM C                 
1 39453U 13067C   22058.53879064  .00005273  00000+0  10281-3 0  9991
2 39453  87.3404 264.3153 0003477  92.5259 267.6398 15.47239907464911
BRITE-CA1 (TORONTO)     
1 40020U 14033L   22058.46387585  .00000396  00000+0  75714-4 0  9995
2 40020  97.7625 223.1202 0085809 254.0744 105.0993 14.66869566411530
OCO 2                   
1 40059U 14035A   22058.54587157  .00000190  00000+0  52164-4 0  9991
2 40059  98.1919   1.5061 0001430  83.3847 276.7514 14.57117035407323
BRITE-PL2 (HEWELIUSZ)   
1 40119U 14049B   22058.57920822  .00000623  00000+0  79600-4 0  9991
2 40119  97.8818 155.3871 0016185 239.4309 120.5309 14.84860938407708
RESURS P2               
1 40360U 14087A   22058.52305605  .00003416  00000+0  10155-3 0  9994
2 40360  97.2121 145.7077 0010785 120.1220   5.7579 15.35369992401388
MMS 1                   
1 40482U 15011A   22049.37500000 -.00001793  00000+0  00000+0 0  9997
2 40482  33.2030 110.3704 8553758  44.9851 156.8124  0.28440465 12967
MMS 2                   
1 40483U 15011B   22049.37500000 -.00001792  00000+0  00000+0 0  9997
2 40483  33.2012 110.3736 8553178  44.9909 156.7827  0.28440420 13021
MMS 3                   
1 40484U 15011C   22049.37500000 -.00001792  00000+0  00000+0 0  9998
2 40484  33.1960 110.3396 8553205  45.0179 156.7878  0.28439167 12703
MMS 4                   
1 40485U 15011D   22049.37500000 -.00001792  00000+0  00000+0 0  9999
2 40485  33.2032 110.3721 8552345  44.9837 156.8058  0.28440432 12911
ASTROSAT                
1 40930U 15052A   22057.90064535  .00000992  00000+0  50021-4 0  9998
2 40930   5.9958 246.5847 0008311  27.4582 332.5984 14.76502659346834
DAMPE                   
1 41173U 15078A   22058.59098831  .00000522  00000+0  24285-4 0  9990
2 41173  97.3704  51.0988 0012354 221.8883 270.9909 15.24211211344845
PISAT                   
1 41784U 16059B   22058.56771864  .00000332  00000+0  71986-4 0  9998
2 41784  97.9325 106.1185 0032514 154.8800 205.3993 14.63761532289619
HXMT (HUIYAN)           
1 42758U 17034A   22058.61563544  .00001391  00000+0  98071-4 0  9994
2 42758  43.0162 232.0842 0009536 308.6303 136.8320 15.09757891259574
FLYING LAPTOP           
1 42831U 17042G   22058.38203029  .00000950  00000+0  99882-4 0  9999
2 42831  97.4381 279.1557 0014495  22.1397 338.0393 14.91537027251685
PICSAT                  
1 43132U 18004X   22058.47261864  .00006678  00000+0  24506-3 0  9997
2 43132  97.3829 135.6761 0008971  36.7270 323.4583 15.28251268229597
ZHANGZHENG-1 (CSES)     
1 43194U 18015C   22058.59991537  .00005146  00000+0  23366-3 0  9999
2 43194  97.5044 189.6317 0013140 111.3871  17.0327 15.21159799225927
ICON                    
1 44628U 19068A   22058.37865881  .00001349  00000+0  10909-3 0  9999
2 44628  26.9896 307.7647 0018568 228.1748 131.7224 14.92349832130100
SALSAT                  
1 46495U 20068K   22058.40271328  .00000850  00000+0  66070-4 0  9993
2 46495  97.7187 359.7935 0015331 292.7888  67.1717 15.03923894 77644
IXPE                    
1 49954U 21121A   22046.02635047  .00002251  00000+0  14715-3 0  9999
2 49954   0.2285 201.0830 0011445 295.4185 223.5884 14.90879525 10129
